IRIDIUM 119             
1 42959U 17061E   23348.55442805  .00000046  00000+0  93846-5 0  9991
2 42959  86.3978  47.8924 0002314  97.8076 262.3383 14.34216794323571
IRIDIUM 107             
1 42960U 17061F   23348.57345530  .00000277  00000+0  91782-4 0  9994
2 42960  86.3978  47.9007 0002453  92.5355 267.6121 14.34219911323585
IRIDIUM 132             
1 42961U 17061G   23348.57979998  .00000282  00000+0  93521-4 0  9995
2 42961  86.3977  47.8834 0002415  93.7899 266.3573 14.34215865323587
IRIDIUM 136             
1 42962U 17061H   23348.54174504  .00000274  00000+0  90912-4 0  9995
2 42962  86.3977  47.9018 0002169 101.3971 258.7468 14.34217639323596
IRIDIUM 139             
1 42963U 17061J   23348.54808970  .00000287  00000+0  95578-4 0  9994
2 42963  86.3979  47.9466 0002371  92.8790 267.2677 14.34219866323607
IRIDIUM 125             
1 42964U 17061K   23348.60515788  .00000261  00000+0  86170-4 0  9994
2 42964  86.3981  47.9670 0002469  98.8525 261.2951 14.34215009323624
IRIDIUM 135             
1 43070U 17083A   23348.50954148  .00000276  00000+0  91630-4 0  9996
2 43070  86.3962 344.7129 0002097  85.0986 275.0449 14.34216249312906
IRIDIUM 138             
1 43071U 17083B   23348.53490432  .00000271  00000+0  89807-4 0  9999
2 43071  86.3950 344.4429 0002427  95.4302 264.7171 14.34219281312892
